STARLINK-2139           
1 48554U 21041B   26068.45378287 -.00001085  00000+0 -24509-4 0  9999
2 48554  53.1615 127.7973 0001287  99.9388 260.1758 15.30202762265245
2022-023A               
1 51946U 22023A   26066.38437076  .00004303  00000+0  19500-3 0  9999
2 51946  63.4765 256.0240 0098533 341.4326  18.3199 15.18202647222269
